STARLINK-37549          
1 69351U 26122Y   26162.66668980 -.02825907  20650-2 -99501-2 0  9999
2 69351  97.2872 191.8317 0001721  92.6633  70.9385 15.89329055  2462
STARLINK-37778          
1 69352U 26122Z   26162.66668980 -.02876642  22190-2 -86597-2 0  9994
2 69352  97.2871 191.8340 0001829  97.3891  71.7488 15.92411130  2468
STARLINK-37651          
1 69353U 26123A   26162.66668980 -.01774792  00000+0 -72513-2 0  9994
2 69353  53.1583 269.5276 0000809  60.0070 244.0746 15.88398718  2265
STARLINK-37652          
1 69354U 26123B   26162.66668980 -.01781102  00000+0 -77589-2 0  9996
2 69354  53.1580 269.5242 0000841  59.4896 246.2584 15.87136118  2267
STARLINK-37593          
1 69355U 26123C   26162.66668980 -.01788642  00000+0 -77310-2 0  9995
2 69355  53.1582 269.5154 0000970  62.9039 246.9971 15.87305104  2319
STARLINK-37597          
1 69356U 26123D   26162.66668980 -.01786897  00000+0 -75652-2 0  9993
2 69356  53.1580 269.5014 0000887  62.7073 253.9782 15.87715413  2312
STARLINK-37598          
1 69357U 26123E   26162.66668980 -.01739414  00000+0 -71188-2 0  9997
2 69357  53.1578 269.4857 0000903  60.6365 263.7099 15.88299106  2311
STARLINK-37602          
1 69358U 26123F   26162.66668980 -.01731817  00000+0 -70421-2 0  9996
2 69358  53.1579 269.4770 0000763  69.0231 259.5065 15.88414481  2317
STARLINK-37600          
1 69359U 26123G   26162.66668980 -.01719410  00000+0 -66924-2 0  9995
2 69359  53.1577 269.4552 0000861  62.5344 276.5303 15.89250500  2311
STARLINK-37599          
1 69360U 26123H   26162.66668980 -.02066881  11585-2 -60880-2 0  9993
2 69360  53.1577 269.4278 0000746  61.2829 290.9846 15.92136298  2261
STARLINK-37039          
1 69361U 26123J   26162.66668980 -.01781268  00000+0 -69665-2 0  9993
2 69361  53.1577 269.4335 0000894  60.6669 288.7524 15.89267835  2261
STARLINK-37040          
1 69362U 26123K   26162.66668980 -.00399484  62742-4 -10832-2 0  9996
2 69362  53.1575 269.3934 0000975  50.7069 317.8544 15.93387932  2260
STARLINK-37582          
1 69363U 26123L   26162.66668980 -.01707348  00000+0 -62339-2 0  9993
2 69363  53.1575 269.3997 0000931  59.1454 306.6052 15.90470343  2269
STARLINK-37309          
1 69364U 26123M   26162.66668980 -.00350915  52143-4 -85262-3 0  9998
2 69364  53.1572 269.3603 0000879  49.1401 335.6208 15.95413072  2405
STARLINK-37436          
1 69365U 26123N   26162.66668980 -.00356830  53815-4 -83898-3 0  9991
2 69365  53.1573 269.3359 0000835  47.3564 348.9733 15.96020984  2404
STARLINK-37581          
1 69366U 26123P   26162.66668980 -.00377403  58550-4 -90575-3 0  9992
2 69366  53.1572 269.3301 0000890  49.2037 349.9970 15.95654932  2250
STARLINK-37683          
1 69367U 26123Q   26162.66668980 -.00367965  56434-4 -86746-3 0  9999
2 69367  53.1573 269.3169 0000938  48.3601 357.1642 15.95978213  2263
STARLINK-37687          
1 69368U 26123R   26162.66668980 -.00338308  50170-4 -74240-3 0  9996
2 69368  53.1573 269.2896 0000933  48.5998   9.9533 15.97265075  2264
STARLINK-37631          
1 69369U 26123S   26162.66668980 -.00330184  48474-4 -71404-3 0  9994
2 69369  53.1571 269.2763 0000922  47.3268  17.7906 15.97523813  2315
STARLINK-37673          
1 69370U 26123T   26162.66668980 -.00314371  45266-4 -66030-3 0  9991
2 69370  53.1570 269.2589 0000905  48.3186  25.1892 15.98036425  2319
STARLINK-37645          
1 69371U 26123U   26162.66668980 -.01481575  66748-3 -31016-2 0  9996
2 69371  53.1572 269.2518 0001176  41.6203  35.1324 15.98384185  2311
STARLINK-37688          
1 69372U 26123V   26162.66668980 -.01807597  95459-3 -39763-2 0  9991
2 69372  53.1570 269.1935 0001028  43.6807  60.8784 15.97544449  2315
STARLINK-37685          
1 69373U 26123W   26162.66668980 -.01793810  94056-3 -39575-2 0  9997
2 69373  53.1569 269.1845 0001009  46.3645  62.5504 15.97489843  2318
STARLINK-37632          
1 69374U 26123X   26162.66668980 -.01810838  95660-3 -40087-2 0  9990
2 69374  53.1568 269.1772 0001084  50.8106  61.6332 15.97430366  2261
STARLINK-37454          
1 69375U 26123Y   26162.66668980 -.01784783  93108-3 -39528-2 0  9993
2 69375  53.1567 269.1620 0001008  48.6192  70.9474 15.97419018  2406
STARLINK-37485          
1 69376U 26123Z   26162.66668980 -.01795642  94205-3 -39679-2 0  9996
2 69376  53.1567 269.1534 0001111  47.1379  76.5059 15.97460800  2403
STARLINK-37439          
1 69377U 26123AA  26162.66668980 -.01768448  93261-3 -35562-2 0  9999
2 69377  53.1563 269.1234 0001071  55.0592  82.9668 15.99142321  2265
STARLINK-37376          
1 69378U 26123AB  26162.66668980 -.01744100  89929-3 -37046-2 0  9994
2 69378  53.1565 269.1253 0001086  50.0356  87.0101 15.98164548  2406
STARLINK-37383          
1 69379U 26123AC  26162.66668980 -.01767305  93069-3 -35695-2 0  9995
2 69379  53.1559 269.0776 0001064  55.9179 103.8158 15.99064485  2401
