OBJECT_NAME,OBJECT_ID,EPOCH,MEAN_MOTION,ECCENTRICITY,INCLINATION,RA_OF_ASC_NODE,ARG_OF_PERICENTER,MEAN_ANOMALY,EPHEMERIS_TYPE,CLASSIFICATION_TYPE,NORAD_CAT_ID,ELEMENT_SET_NO,REV_AT_EPOCH,BSTAR,MEAN_MOTION_DOT,MEAN_MOTION_DDOT
STARLINK-37549,2026-122Y,2026-06-11T16:00:01.998720,15.89329055,.0001721,97.2872,191.8317,92.6633,70.9385,0,U,69351,999,246,-.99501E-2,-.2825907E-1,.2065E-2
STARLINK-37778,2026-122Z,2026-06-11T16:00:01.998720,15.92411130,.0001829,97.2871,191.8340,97.3891,71.7488,0,U,69352,999,246,-.86597E-2,-.2876642E-1,.2219E-2
STARLINK-37651,2026-123A,2026-06-11T16:00:01.998720,15.88398718,.0000809,53.1583,269.5276,60.0070,244.0746,0,U,69353,999,226,-.72513E-2,-.1774792E-1,0
STARLINK-37652,2026-123B,2026-06-11T16:00:01.998720,15.87136118,.0000841,53.1580,269.5242,59.4896,246.2584,0,U,69354,999,226,-.77589E-2,-.1781102E-1,0
STARLINK-37593,2026-123C,2026-06-11T16:00:01.998720,15.87305104,.000097,53.1582,269.5154,62.9039,246.9971,0,U,69355,999,231,-.7731E-2,-.1788642E-1,0
STARLINK-37597,2026-123D,2026-06-11T16:00:01.998720,15.87715413,.0000887,53.1580,269.5014,62.7073,253.9782,0,U,69356,999,231,-.75652E-2,-.1786897E-1,0
STARLINK-37598,2026-123E,2026-06-11T16:00:01.998720,15.88299106,.0000903,53.1578,269.4857,60.6365,263.7099,0,U,69357,999,231,-.71188E-2,-.1739414E-1,0
STARLINK-37602,2026-123F,2026-06-11T16:00:01.998720,15.88414481,.0000763,53.1579,269.4770,69.0231,259.5065,0,U,69358,999,231,-.70421E-2,-.1731817E-1,0
STARLINK-37600,2026-123G,2026-06-11T16:00:01.998720,15.89250500,.0000861,53.1577,269.4552,62.5344,276.5303,0,U,69359,999,231,-.66924E-2,-.171941E-1,0
STARLINK-37599,2026-123H,2026-06-11T16:00:01.998720,15.92136298,.0000746,53.1577,269.4278,61.2829,290.9846,0,U,69360,999,226,-.6088E-2,-.2066881E-1,.11585E-2
STARLINK-37039,2026-123J,2026-06-11T16:00:01.998720,15.89267835,.0000894,53.1577,269.4335,60.6669,288.7524,0,U,69361,999,226,-.69665E-2,-.1781268E-1,0
STARLINK-37040,2026-123K,2026-06-11T16:00:01.998720,15.93387932,.0000975,53.1575,269.3934,50.7069,317.8544,0,U,69362,999,226,-.10832E-2,-.399484E-2,.62742E-4
STARLINK-37582,2026-123L,2026-06-11T16:00:01.998720,15.90470343,.0000931,53.1575,269.3997,59.1454,306.6052,0,U,69363,999,226,-.62339E-2,-.1707348E-1,0
STARLINK-37309,2026-123M,2026-06-11T16:00:01.998720,15.95413072,.0000879,53.1572,269.3603,49.1401,335.6208,0,U,69364,999,240,-.85262E-3,-.350915E-2,.52143E-4
STARLINK-37436,2026-123N,2026-06-11T16:00:01.998720,15.96020984,.0000835,53.1573,269.3359,47.3564,348.9733,0,U,69365,999,240,-.83898E-3,-.35683E-2,.53815E-4
STARLINK-37581,2026-123P,2026-06-11T16:00:01.998720,15.95654932,.000089,53.1572,269.3301,49.2037,349.9970,0,U,69366,999,225,-.90575E-3,-.377403E-2,.5855E-4
STARLINK-37683,2026-123Q,2026-06-11T16:00:01.998720,15.95978213,.0000938,53.1573,269.3169,48.3601,357.1642,0,U,69367,999,226,-.86746E-3,-.367965E-2,.56434E-4
STARLINK-37687,2026-123R,2026-06-11T16:00:01.998720,15.97265075,.0000933,53.1573,269.2896,48.5998,9.9533,0,U,69368,999,226,-.7424E-3,-.338308E-2,.5017E-4
STARLINK-37631,2026-123S,2026-06-11T16:00:01.998720,15.97523813,.0000922,53.1571,269.2763,47.3268,17.7906,0,U,69369,999,231,-.71404E-3,-.330184E-2,.48474E-4
STARLINK-37673,2026-123T,2026-06-11T16:00:01.998720,15.98036425,.0000905,53.1570,269.2589,48.3186,25.1892,0,U,69370,999,231,-.6603E-3,-.314371E-2,.45266E-4
STARLINK-37645,2026-123U,2026-06-11T16:00:01.998720,15.98384185,.0001176,53.1572,269.2518,41.6203,35.1324,0,U,69371,999,231,-.31016E-2,-.1481575E-1,.66748E-3
STARLINK-37688,2026-123V,2026-06-11T16:00:01.998720,15.97544449,.0001028,53.1570,269.1935,43.6807,60.8784,0,U,69372,999,231,-.39763E-2,-.1807597E-1,.95459E-3
STARLINK-37685,2026-123W,2026-06-11T16:00:01.998720,15.97489843,.0001009,53.1569,269.1845,46.3645,62.5504,0,U,69373,999,231,-.39575E-2,-.179381E-1,.94056E-3
STARLINK-37632,2026-123X,2026-06-11T16:00:01.998720,15.97430366,.0001084,53.1568,269.1772,50.8106,61.6332,0,U,69374,999,226,-.40087E-2,-.1810838E-1,.9566E-3
STARLINK-37454,2026-123Y,2026-06-11T16:00:01.998720,15.97419018,.0001008,53.1567,269.1620,48.6192,70.9474,0,U,69375,999,240,-.39528E-2,-.1784783E-1,.93108E-3
STARLINK-37485,2026-123Z,2026-06-11T16:00:01.998720,15.97460800,.0001111,53.1567,269.1534,47.1379,76.5059,0,U,69376,999,240,-.39679E-2,-.1795642E-1,.94205E-3
STARLINK-37439,2026-123AA,2026-06-11T16:00:01.998720,15.99142321,.0001071,53.1563,269.1234,55.0592,82.9668,0,U,69377,999,226,-.35562E-2,-.1768448E-1,.93261E-3
STARLINK-37376,2026-123AB,2026-06-11T16:00:01.998720,15.98164548,.0001086,53.1565,269.1253,50.0356,87.0101,0,U,69378,999,240,-.37046E-2,-.17441E-1,.89929E-3
STARLINK-37383,2026-123AC,2026-06-11T16:00:01.998720,15.99064485,.0001064,53.1559,269.0776,55.9179,103.8158,0,U,69379,999,240,-.35695E-2,-.1767305E-1,.93069E-3
